[{"OBJECT_NAME":"STARLINK-5780","OBJECT_ID":"2023-090BB","EPOCH":"2026-03-09T22:00:01.999584","MEAN_MOTION":15.07986921,"ECCENTRICITY":0.00013401,"INCLINATION":43.0012,"RA_OF_ASC_NODE":260.2614,"ARG_OF_PERICENTER":308.8456,"MEAN_ANOMALY":243.4507,"EPHEMERIS_TYPE":0,"CLASSIFICATION_TYPE":"U","NORAD_CAT_ID":57150,"ELEMENT_SET_NO":999,"REV_AT_EPOCH":572,"BSTAR":0.0048497257,"MEAN_MOTION_DOT":0.00076468,"MEAN_MOTION_DDOT":0},{"OBJECT_NAME":"DISKSAT A","OBJECT_ID":"2025-305D","EPOCH":"2026-03-09T13:08:58.223040","MEAN_MOTION":15.07741062,"ECCENTRICITY":0.0004082,"INCLINATION":45.0023,"RA_OF_ASC_NODE":251.6019,"ARG_OF_PERICENTER":318.1929,"MEAN_ANOMALY":41.8634,"EPHEMERIS_TYPE":0,"CLASSIFICATION_TYPE":"U","NORAD_CAT_ID":67222,"ELEMENT_SET_NO":999,"REV_AT_EPOCH":1226,"BSTAR":0.00090452,"MEAN_MOTION_DOT":0.00013824,"MEAN_MOTION_DDOT":0}]
